ION SCV-004             
1 50993U 22002K   26068.68892644  .00006538  00000+0  23198-3 0  9998
2 50993  97.2961 128.2294 0007216   1.6783 358.4480 15.29369331230088
STARLINK-30824          
1 58176U 23167B   26068.36077985  .00003121  00000+0  12601-3 0  9992
2 58176  43.0003 145.3645 0001030 257.0695 103.0041 15.26728143130939
